NORAD_CAT_ID,OBJECT_NAME,OBJECT_TYPE,EPOCH,MEAN_MOTION,ECCENTRICITY,INCLINATION,RA_OF_ASC_NODE,ARG_OF_PERICENTER,MEAN_ANOMALY,BSTAR,MEAN_MOTION_DOT,MEAN_MOTION_DDOT,TLE_LINE0,TLE_LINE1,TLE_LINE2,SEMIMAJOR_AXIS,PERIOD,APOGEE,PERIGEE,DECAYED
55757.0,STARLINK-5544,PAYLOAD,2023-04-15 14:00:01,15.37118008,0.0003165,70.0021,36.323,268.4742,280.8071,-0.02516,-0.00847061,0.0,0 STARLINK-5544,1 55757U 23028S   23105.58334491 -.00847061  00000-0 -25160-1 0  9995,2 55757  70.0021  36.3230 0003165 268.4742 280.8071 15.37118008  1300,6832.774,93.682,456.801,452.476,0.0
55757.0,STARLINK-5544,PAYLOAD,2023-04-15 22:00:01,15.3653284,0.0003213,70.0026,35.4314,266.6091,326.366,-0.029465,-0.00962739,0.0,0 STARLINK-5544,1 55757U 23028S   23105.91668981 -.00962739  00000-0 -29465-1 0  9998,2 55757  70.0026  35.4314 0003213 266.6091 326.3660 15.36532840  7409,6834.508,93.717,458.569,454.177,0.0
55757.0,STARLINK-5544,PAYLOAD,2023-04-16 10:00:00,15.35553898,0.0003217,70.0022,34.0954,272.3765,204.5428,-0.030495,-0.00965208,0.0,0 STARLINK-5544,1 55757U 23028S   23106.41667824 -.00965208  00000-0 -30495-1 0  9998,2 55757  70.0022  34.0954 0003217 272.3765 204.5428 15.35553898  1303,6837.413,93.777,461.477,457.078,0.0
55757.0,STARLINK-5544,PAYLOAD,2023-04-16 22:00:00,15.3457254,0.000334,70.003,32.7614,266.2789,92.8899,-0.031234,-0.00958636,0.0,0 STARLINK-5544,1 55757U 23028S   23106.91667824 -.00958636  00000-0 -31234-1 0  9992,2 55757  70.0030  32.7614 0003340 266.2789  92.8899 15.34572540  1297,6840.327,93.837,464.477,459.908,0.0
55757.0,STARLINK-5544,PAYLOAD,2023-04-17 12:00:00,15.33389365,0.0003153,70.0028,31.2076,267.4233,72.1566,-0.030066,-0.00894171,0.0,0 STARLINK-5544,1 55757U 23028S   23107.50001157 -.00894171  00000-0 -30066-1 0  9994,2 55757  70.0028  31.2076 0003153 267.4233  72.1566 15.33389365  7646,6843.846,93.91,467.869,463.553,0.0
55757.0,STARLINK-5544,PAYLOAD,2023-04-17 14:00:01,15.33200585,0.0003188,70.0029,30.9858,267.4693,171.9764,-0.028192,-0.00837944,0.0,0 STARLINK-5544,1 55757U 23028S   23107.58334491 -.00837944  00000-0 -28192-1 0  9994,2 55757  70.0029  30.9858 0003188 267.4693 171.9764 15.33200585  1300,6844.407,93.921,468.454,464.09,0.0
55757.0,STARLINK-5544,PAYLOAD,2023-04-17 22:00:00,15.32611087,0.0003191,70.0032,30.0995,270.8003,207.5858,-0.033022,-0.00952836,0.0,0 STARLINK-5544,1 55757U 23028S   23107.91667824 -.00952836  00000-0 -33022-1 0  9996,2 55757  70.0032  30.0995 0003191 270.8003 207.5858 15.32611087  1306,6846.162,93.957,470.212,465.843,0.0
55757.0,STARLINK-5544,PAYLOAD,2023-04-18 14:00:01,15.3124685,0.0003071,70.0031,28.3295,269.5778,284.3876,-0.029997,-0.0083842,0.0,0 STARLINK-5544,1 55757U 23028S   23108.58334491 -.00838420  00000-0 -29997-1 0  9999,2 55757  70.0031  28.3295 0003071 269.5778 284.3876 15.31246850  1303,6850.228,94.041,474.197,469.989,0.0
55757.0,STARLINK-5544,PAYLOAD,2023-04-18 22:00:00,15.30647059,0.0003113,70.0033,27.446,270.2327,320.3315,-0.034707,-0.00942578,0.0,0 STARLINK-5544,1 55757U 23028S   23108.91667824 -.00942578  00000-0 -34707-1 0  9990,2 55757  70.0033  27.4460 0003113 270.2327 320.3315 15.30647059  1309,6852.018,94.078,476.016,471.75,0.0
55757.0,STARLINK-5544,PAYLOAD,2023-04-19 06:00:00,15.2998987,0.0003088,70.003,26.563,275.0515,351.3353,-0.034485,-0.00919646,0.0,0 STARLINK-5544,1 55757U 23028S   23109.25001157 -.00919646  00000-0 -34485-1 0  9992,2 55757  70.0030  26.5630 0003088 275.0515 351.3353 15.29989870  7915,6853.98,94.118,477.961,473.728,0.0
55757.0,STARLINK-5544,PAYLOAD,2023-04-19 14:00:01,15.29294205,0.0003191,70.0033,25.6814,268.7377,32.7069,-0.032072,-0.00843303,0.0,0 STARLINK-5544,1 55757U 23028S   23109.58334491 -.00843303  00000-0 -32072-1 0  9994,2 55757  70.0033  25.6814 0003191 268.7377  32.7069 15.29294205  1304,6856.058,94.161,480.111,475.735,0.0
55757.0,STARLINK-5544,PAYLOAD,2023-04-19 22:00:00,15.28687514,0.0003252,70.0033,24.8005,270.6712,65.03,-0.036666,-0.00949566,0.0,0 STARLINK-5544,1 55757U 23028S   23109.91667824 -.00949566  00000-0 -36666-1 0  9991,2 55757  70.0033  24.8005 0003252 270.6712  65.0300 15.28687514  1305,6857.872,94.198,481.967,477.507,0.0
55757.0,STARLINK-5544,PAYLOAD,2023-04-20 06:00:00,15.2803367,0.0003207,70.003,23.9203,277.0438,92.1297,-0.036717,-0.00933238,0.0,0 STARLINK-5544,1 55757U 23028S   23110.25001157 -.00933238  00000-0 -36717-1 0  9997,2 55757  70.0030  23.9203 0003207 277.0438  92.1297 15.28033670  8073,6859.828,94.239,483.893,479.493,0.0
55757.0,STARLINK-5544,PAYLOAD,2023-04-20 14:00:01,15.27339075,0.0003207,70.0033,23.0412,271.4395,130.4446,-0.034134,-0.00845115,0.0,0 STARLINK-5544,1 55757U 23028S   23110.58334491 -.00845115  00000-0 -34134-1 0  9990,2 55757  70.0033  23.0412 0003207 271.4395 130.4446 15.27339075  1307,6861.908,94.282,485.973,481.572,0.0
55757.0,STARLINK-5544,PAYLOAD,2023-04-20 22:00:00,15.26727517,0.0003199,70.0034,22.1628,273.0696,160.727,-0.03878,-0.00946171,0.0,0 STARLINK-5544,1 55757U 23028S   23110.91667824 -.00946171  00000-0 -38780-1 0  9991,2 55757  70.0034  22.1628 0003199 273.0696 160.7270 15.26727517  1301,6863.74,94.319,487.801,483.409,0.0
55757.0,STARLINK-5544,PAYLOAD,2023-04-21 14:00:01,15.25385994,0.0003094,70.0031,20.4087,271.38,223.9031,-0.036489,-0.00850962,0.0,0 STARLINK-5544,1 55757U 23028S   23111.58334491 -.00850962  00000-0 -36489-1 0  9992,2 55757  70.0031  20.4087 0003094 271.3800 223.9031 15.25385994  8278,6867.764,94.402,491.753,487.504,0.0
55757.0,STARLINK-5544,PAYLOAD,2023-04-21 22:00:00,15.24764191,0.0003068,70.0032,19.533,272.7072,252.1438,-0.040702,-0.00936603,0.0,0 STARLINK-5544,1 55757U 23028S   23111.91667824 -.00936603  00000-0 -40702-1 0  9998,2 55757  70.0032  19.5330 0003068 272.7072 252.1438 15.24764191  8326,6869.631,94.441,493.603,489.388,0.0
55757.0,STARLINK-5544,PAYLOAD,2023-04-22 14:00:01,15.23433493,0.0003035,70.0028,17.7839,268.5337,313.1066,-0.038961,-0.00856486,0.0,0 STARLINK-5544,1 55757U 23028S   23112.58334491 -.00856486  00000-0 -38961-1 0  9997,2 55757  70.0028  17.7839 0003035 268.5337 313.1066 15.23433493  1309,6873.63,94.523,497.582,493.409,0.0
55757.0,STARLINK-5544,PAYLOAD,2023-04-22 22:00:01,15.22802521,0.0003105,70.0031,16.9108,270.652,338.2775,-0.042675,-0.00926905,0.0,0 STARLINK-5544,1 55757U 23028S   23112.91668981 -.00926905  00000-0 -42675-1 0  9999,2 55757  70.0031  16.9108 0003105 270.6520 338.2775 15.22802521  8470,6875.529,94.562,499.529,495.259,0.0
55757.0,STARLINK-5544,PAYLOAD,2023-04-23 14:00:01,15.21477229,0.0003193,70.0027,15.1669,267.2138,33.7465,-0.041422,-0.00859109,0.0,0 STARLINK-5544,1 55757U 23028S   23113.58334491 -.00859109  00000-0 -41422-1 0  9999,2 55757  70.0027  15.1669 0003193 267.2138  33.7465 15.21477229  1302,6879.521,94.645,503.583,499.189,0.0
55757.0,STARLINK-5544,PAYLOAD,2023-04-23 22:00:00,15.20844251,0.000321,70.0029,14.2963,270.4382,55.4001,-0.04505,-0.00923809,0.0,0 STARLINK-5544,1 55757U 23028S   23113.91667824 -.00923809  00000-0 -45050-1 0  9995,2 55757  70.0029  14.2963 0003210 270.4382  55.4001 15.20844251  1307,6881.43,94.684,505.504,501.086,0.0
55757.0,STARLINK-5544,PAYLOAD,2023-04-24 04:00:00,15.203467,0.0003053,70.0026,13.6437,274.046,339.9319,-0.044219,-0.00895712,0.0,0 STARLINK-5544,1 55757U 23028S   23114.16667824 -.00895712  00000-0 -44219-1 0  9990,2 55757  70.0026  13.6437 0003053 274.0460 339.9319 15.20346700  8669,6882.931,94.715,506.897,502.695,0.0
55757.0,STARLINK-5544,PAYLOAD,2023-04-24 14:00:01,15.19523789,0.0003267,70.0024,12.5575,268.127,105.1104,-0.044167,-0.00874982,0.0,0 STARLINK-5544,1 55757U 23028S   23114.58334491 -.00874982  00000-0 -44167-1 0  9995,2 55757  70.0024  12.5575 0003267 268.1270 105.1104 15.19523789  1309,6885.416,94.767,509.53,505.031,0.0
55757.0,STARLINK-5544,PAYLOAD,2023-04-25 14:00:01,15.17570293,0.0003169,70.0024,9.9559,268.3222,170.2157,-0.047056,-0.0088053,0.0,0 STARLINK-5544,1 55757U 23028S   23115.58335648 -.00880530  00000-0 -47056-1 0  9997,2 55757  70.0024   9.9559 0003169 268.3222 170.2157 15.17570293  8882,6891.323,94.889,515.372,511.005,0.0
55757.0,STARLINK-5544,PAYLOAD,2023-04-26 04:00:00,15.16442269,0.0003181,70.0024,8.4419,273.8624,109.4139,-0.050345,-0.00909821,0.0,0 STARLINK-5544,1 55757U 23028S   23116.16667824 -.00909821  00000-0 -50345-1 0  9996,2 55757  70.0024   8.4419 0003181 273.8624 109.4139 15.16442269  8976,6894.74,94.959,518.799,514.412,0.0
55757.0,STARLINK-5544,PAYLOAD,2023-04-26 14:00:01,15.156199,0.0003043,70.0024,7.3622,266.9332,229.7363,-0.050371,-0.00890585,0.0,0 STARLINK-5544,1 55757U 23028S   23116.58334491 -.00890585  00000-0 -50371-1 0  9998,2 55757  70.0024   7.3622 0003043 266.9332 229.7363 15.15619900  1308,6897.234,95.011,521.198,517.0,0.0
55757.0,STARLINK-5544,PAYLOAD,2023-04-26 22:00:00,15.14967171,0.0003034,70.0026,6.4993,270.029,244.4845,-0.052751,-0.00913728,0.0,0 STARLINK-5544,1 55757U 23028S   23116.91667824 -.00913728  00000-0 -52751-1 0  9993,2 55757  70.0026   6.4993 0003034 270.0290 244.4845 15.14967171  1304,6899.215,95.052,523.173,518.987,0.0
55757.0,STARLINK-5544,PAYLOAD,2023-04-27 14:00:01,15.13667795,0.0003032,70.0024,4.7762,264.1596,283.7281,-0.053767,-0.00898854,0.0,0 STARLINK-5544,1 55757U 23028S   23117.58335648 -.00898854  00000-0 -53767-1 0  9993,2 55757  70.0024   4.7762 0003032 264.1596 283.7281 15.13667795  9180,6903.163,95.133,527.121,522.935,0.0
55757.0,STARLINK-5544,PAYLOAD,2023-04-28 06:00:02,15.12393754,0.0003014,70.0024,3.0565,274.0414,304.0324,-0.060151,-0.00964807,0.0,0 STARLINK-5544,1 55757U 23028S   23118.25002315 -.00964807  00000-0 -60151-1 0  9997,2 55757  70.0024   3.0565 0003014 274.0414 304.0324 15.12393754  9288,6907.039,95.213,530.986,526.822,0.0
55757.0,STARLINK-5544,PAYLOAD,2023-04-28 14:00:01,15.11715171,0.0003059,70.0024,2.1983,266.8372,325.1028,-0.057241,-0.0090546,0.0,0 STARLINK-5544,1 55757U 23028S   23118.58334491 -.00905460  00000-0 -57241-1 0  9992,2 55757  70.0024   2.1983 0003059 266.8372 325.1028 15.11715171  1303,6909.106,95.256,533.085,528.858,0.0
